SHIJIAN-28 (SJ-28)      
1 66549U 25277A   25362.27815459 -.00000335  00000+0  00000+0 0  9992
2 66549   4.9800 274.7137 0000520 161.3901 237.7812  1.00273827   440
CZ-7A R/B               
1 66550U 25277B   25360.17323146  .04976202 -21169-6  31720-2 0  9999
2 66550  14.3386 261.8830 6428177 204.1589 102.8537  3.54037207   761
USA 568                 
1 66551U 24134K   25336.66670139 -.01709685  00000+0 -74303-2 0  9990
2 66551  53.1571 236.7807 0000717 110.7411 313.9012 15.87051116  2624
GLOBAL-33               
1 66554U 25267A   25362.18291678  .00018220  00000+0  58615-3 0  9998
2 66554  42.0214 327.8315 0005369 197.9577 162.1071 15.31858047  5777
STARLINK-35699          
1 66557U 25268A   25362.25002315  .00004685  00000+0  17980-3 0  9998
2 66557  43.0009  30.9458 0001314 271.9738 284.2002 15.27551647  6054
STARLINK-35695          
1 66558U 25268B   25362.25002315  .00015194  00000+0  56112-3 0  9996
2 66558  43.0006  30.8951 0001618 275.4421 301.9573 15.27545800  6058
STARLINK-35419          
1 66559U 25268C   25362.25002315 -.02034482  00000+0 -70450-1 0  9991
2 66559  43.0004  30.6290 0001136 256.9576  71.3005 15.32423824  6045
STARLINK-35411          
1 66560U 25268D   25362.25002315 -.02093440  00000+0 -71455-1 0  9998
2 66560  42.9998  30.5984 0001283 264.6683  75.5732 15.32972291  6044
STARLINK-35305          
1 66561U 25268E   25362.25002315 -.02116745  00000+0 -68533-1 0  9996
2 66561  43.0001  30.5157 0001373 266.0095 108.3505 15.34660745  6040
STARLINK-35579          
1 66562U 25268F   25362.25002315 -.02098194  00000+0 -69735-1 0  9999
2 66562  42.9999  30.5559 0001368 262.3140  95.2673 15.33814500  6044
STARLINK-35437          
1 66563U 25268G   25362.25002315 -.02116936  00000+0 -66714-1 0  9999
2 66563  43.0012  30.4758 0001418 268.3124 122.2698 15.35497939  6051
STARLINK-35358          
1 66564U 25268H   25362.25002315 -.02097765  00000+0 -64340-1 0  9991
2 66564  43.0011  30.4382 0001546 269.9582 136.3230 15.36303207  5996
STARLINK-35893          
1 66565U 25268J   25362.25002315 -.02005442  00000+0 -60664-1 0  9998
2 66565  43.0008  30.4025 0001511 273.4369 147.9073 15.37144510  6043
STARLINK-35871          
1 66566U 25268K   25362.25002315 -.02035633  00000+0 -60645-1 0  9993
2 66566  43.0004  30.3769 0001314 273.9072 157.4351 15.37668553  6044
STARLINK-35825          
1 66567U 25268L   25362.25002315 -.02015994  00000+0 -58782-1 0  9991
2 66567  43.0004  30.3508 0001519 276.5217 165.6398 15.38283703  6046
STARLINK-35803          
1 66568U 25268M   25362.25002315 -.01757820  00000+0 -46320-1 0  9997
2 66568  43.0000  30.3569 0001403 279.8437 159.4290 15.40859016  6043
STARLINK-35835          
1 66569U 25268N   25362.25002315 -.02048209  00000+0 -56952-1 0  9995
2 66569  43.0003  30.2891 0001620 274.9624 191.6101 15.39775369  6044
STARLINK-35834          
1 66570U 25268P   25362.25002315  .00000001  00000+0  95703-5 0  9992
2 66570  43.0010  30.9607 0001259 291.8555 257.1796 15.27571994  6048
STARLINK-35836          
1 66571U 25268Q   25362.25002315  .00019283  00000+0  70940-3 0  9999
2 66571  43.0008  30.9096 0001627 295.9957 274.2535 15.27535001  6048
STARLINK-35870          
1 66572U 25268R   25362.25002315  .00013915  00000+0  51488-3 0  9992
2 66572  43.0007  30.8254 0001041 261.8492 343.8814 15.27537062  6052
STARLINK-35650          
1 66573U 25268S   25362.25002315  .00009299  00000+0  34768-3 0  9995
2 66573  43.0012  30.7732 0001622 287.8922 339.0479 15.27517452  6055
STARLINK-35812          
1 66574U 25268T   25362.25002315 -.01923673  00000+0 -73751-1 0  9993
2 66574  43.0005  30.7229 0000700 279.7804   7.5401 15.28996269  6054
STARLINK-35810          
1 66575U 25268U   25362.25002315 -.02346430  00000+0 -88960-1 0  9993
2 66575  43.0008  30.6755 0001747 265.3583  41.8569 15.30061684  6051
STARLINK-35814          
1 66576U 25268V   25362.25002315 -.01856683  00000+0 -68542-1 0  9993
2 66576  43.0003  30.6292 0000818 248.1679  78.5164 15.30644923  6057
STARLINK-35815          
1 66577U 25268W   25362.25002315 -.02040180  00000+0 -71268-1 0  9991
2 66577  43.0006  30.5538 0001313 260.3323  97.2455 15.32155395  6059
STARLINK-35743          
1 66578U 25268X   25362.25002315 -.02103580  00000+0 -71733-1 0  9993
2 66578  43.0000  30.5100 0001351 264.9604 110.4899 15.33018047  6056
STARLINK-35868          
1 66579U 25268Y   25362.25002315 -.02110148  00000+0 -70077-1 0  9992
2 66579  43.0010  30.4674 0001368 269.2415 123.5261 15.33858520  5997
STARLINK-35872          
1 66580U 25268Z   25362.25002315 -.02098283  00000+0 -67804-1 0  9993
2 66580  42.9998  30.4276 0001305 272.8404 136.6865 15.34691780  6056
STARLINK-35744          
1 66581U 25268AA  25362.25002315 -.02097724  00000+0 -65975-1 0  9990
2 66581  43.0012  30.3874 0001441 271.5435 154.1774 15.35529372  6052
STARLINK-35746          
1 66582U 25268AB  25362.25002315 -.02000329  00000+0 -60880-1 0  9996
2 66582  43.0004  30.3259 0001798 274.0758 176.9931 15.36945354  6052
STARLINK-35941          
1 66583U 25268AC  25362.25002315 -.02019256  00000+0 -59832-1 0  9991
2 66583  43.0000  30.2906 0001468 279.8260 185.8947 15.37801120  6051
STARLINK-35939          
1 66584U 25268AD  25362.25002315 -.02028607  00000+0 -58525-1 0  9990
2 66584  42.9999  30.2571 0001442 283.6493 195.9830 15.38629436  6050
STARLINK-35963          
1 66585U 25268AE  25362.25002315  .00001245  00000+0  54771-4 0  9998
2 66585  43.0009  30.8726 0000790 277.1668 307.2992 15.27565807  6056
TJS-21                  
1 66586U 25269A   25356.69533331  .00001087  00000+0 -73521-1 0  9994
2 66586  63.2754 161.3014 6807617 269.7248  18.6681  2.00587444   632
STARLINK-36076          
1 66588U 25270A   25361.58331578  .00052619  00000+0  12581-2 0  9997
2 66588  42.9992 107.2541 0000964 262.8597  97.2150 15.40704491  6632
STARLINK-35447          
1 66589U 25270B   25361.63020786  .00039466  00000+0  94388-3 0  9991
2 66589  43.0015 106.7428 0002306 271.1588  88.9004 15.40802929  6757
STARLINK-35429          
1 66590U 25270C   25361.29039378  .00044239  00000+0  10575-2 0  9991
2 66590  42.9965 108.4882 0001190 251.5794 108.4933 15.40777003  6703
STARLINK-36058          
1 66591U 25270D   25362.31197048  .00074078  00000+0  17598-2 0  9991
2 66591  42.9992 102.3937 0001472 282.8830  77.1862 15.40762754  6754
STARLINK-36066          
1 66592U 25270E   25360.34260752  .00057643  00000+0  13745-2 0  9995
2 66592  43.0012 114.2820 0001723 268.5662  91.4997 15.40749213  6344
STARLINK-36031          
1 66593U 25270F   25362.27178499  .00064500  00000+0  15355-2 0  9995
2 66593  42.9977 102.9583 0000611 283.2744  76.8045 15.40756146  6741
STARLINK-36032          
1 66594U 25270G   25362.31869223  .00054624  00000+0  13047-2 0  9995
2 66594  42.9991 102.4439 0001589 291.1520  68.9167 15.40720223  6562
STARLINK-35711          
1 66595U 25270H   25362.30301215  .00070820  00000+0  16836-2 0  9992
2 66595  42.9965 102.3208 0000882 148.1977 211.8932 15.40759732  6868
STARLINK-35811          
1 66596U 25270J   25362.29194799  .00081989  00000+0  19473-2 0  9996
2 66596  43.0011 103.1120 0005445 287.0255  73.0005 15.40714658  6853
STARLINK-35820          
1 66597U 25270K   25362.28298573  .00060276  00000+0  14366-2 0  9993
2 66597  42.9994 103.0409 0001230 240.4151 119.6584 15.40746568  6851
STARLINK-35981          
1 66598U 25270L   25362.26730700  .00058193  00000+0  13823-2 0  9997
2 66598  42.9999 102.9220 0006309 113.2588 246.8933 15.40844912  6593
STARLINK-35930          
1 66599U 25270M   25361.59437802  .00048873  00000+0  11691-2 0  9995
2 66599  42.9994 106.4634 0002730 293.8261  66.2309 15.40714828  6643
STARLINK-35980          
1 66600U 25270N   25361.99903983  .00055091  00000+0  13159-2 0  9991
2 66600  42.9959 104.3474 0000975  58.9654 301.1298 15.40715666  6606
STARLINK-35978          
1 66601U 25270P   25362.27625335  .00058885  00000+0  14026-2 0  9994
2 66601  42.9973 102.9863 0001449 187.7380 172.3454 15.40773473  6582
STARLINK-36050          
1 66602U 25270Q   25362.28970621  .00064235  00000+0  15297-2 0  9994
2 66602  43.0006 103.0933 0006732 287.8092  72.2030 15.40727044  6642
STARLINK-36048          
1 66603U 25270R   25362.26954900  .00070856  00000+0  16848-2 0  9994
2 66603  42.9977 102.9390 0001038 314.1767  45.9004 15.40752762  6643
STARLINK-35977          
1 66604U 25270S   25361.35746520  .00061819  00000+0  14742-2 0  9991
2 66604  42.9989 108.1310 0001683 264.0627  96.0038 15.40720018  6600
STARLINK-36052          
1 66605U 25270T   25362.31645002  .00065631  00000+0  15626-2 0  9990
2 66605  43.0008 102.4255 0001414 270.0803  89.9891 15.40744270  6755
STARLINK-36063          
1 66606U 25270U   25362.30076673  .00060064  00000+0  14308-2 0  9993
2 66606  42.9957 102.2996 0000056 156.8550 203.2309 15.40763181  6755
STARLINK-35993          
1 66607U 25270V   25361.01764808  .00049906  00000+0  11936-2 0  9991
2 66607  42.9959 109.8792 0000480  40.5095 319.5797 15.40714883  6453
STARLINK-36036          
1 66608U 25270W   25362.29852992  .00095768  00000+0  22660-2 0  9998
2 66608  42.9954 102.2844 0000780 272.5886  87.4881 15.40769415  6593
STARLINK-36034          
1 66609U 25270X   25362.29405098  .00080064  00000+0  18997-2 0  9991
2 66609  42.9942 102.2490 0000897 180.8206 179.2649 15.40765853  6598
STARLINK-35680          
1 66610U 25270Y   25362.30972893  .00076115  00000+0  18071-2 0  9992
2 66610  42.9984 102.3708 0003640 290.0290  70.0175 15.40765317  6862
STARLINK-35583          
1 66611U 25270Z   25362.30525096  .00058961  00000+0  14055-2 0  9999
2 66611  42.9974 102.3369 0000590 150.1211 209.9679 15.40750128  6861
STARLINK-36039          
1 66612U 25270AA  25362.28522986  .00059368  00000+0  14132-2 0  9990
2 66612  42.9980 103.0552 0001119 219.6855 140.3919 15.40791376  6746
